STARLINK-4722           
1 53775U 22111C   26068.82741692  .00000448  00000+0  46218-4 0  9995
2 53775  53.2167 273.7382 0001348  87.8612 272.2534 15.08838770193716
ONEWEB-0618             
1 55159U 23004V   26068.89389266  .00008547  00000+0  49588-3 0  9997
2 55159  86.9069 217.8931 0010784 307.7231  52.3030 15.11974897167255
